SL-8 R/B                
1 15483U 85006B   26161.20638128  .00000195  00000+0  73278-4 0  9991
2 15483  74.0458  90.9096 0018617 339.2620 130.0993 14.37831898167328
SL-12 R/B(2)            
1 15772U 85042D   26161.01041801 -.00000028  00000+0  88070-5 0  9990
2 15772  71.1084 252.6786 0035900 338.6906 202.2008 14.22004679127518
SL-14 R/B               
1 15945U 85069B   26161.10129958  .00000405  00000+0  42986-4 0  9994
2 15945  82.5266 298.0304 0017378 244.2407 115.7016 14.86510038186563
SL-16 R/B               
1 16182U 85097B   26161.15944193 -.00000158  00000+0 -54992-4 0  9997
2 16182  71.0038 305.8736 0005531 125.7752  56.0480 14.16612128100325
SL-14 R/B               
1 16496U 86006B   26161.32221174  .00000515  00000+0  51999-4 0  9991
2 16496  82.5261 172.5737 0075442 326.5962  33.0506 14.86938603162979
COSMOS 1743             
1 16719U 86034A   26160.92901664  .00048571  00000+0  46835-3 0  9990
2 16719  82.5280 336.4469 0003640 305.4237  54.6682 15.66293577194650
SL-14 R/B               
1 16792U 86046B   26161.28304636  .00000345  00000+0  36956-4 0  9991
2 16792  82.4816 352.7002 0021600 282.9382  76.9421 14.85666394140150
SL-14 R/B               
1 16882U 86055B   26161.15166510  .00000356  00000+0  38099-4 0  9996
2 16882  82.5210  39.7477 0019668  30.4227  88.5046 14.85718276133096
AJISAI (EGS)            
1 16908U 86061A   26161.33945602 -.00000076  00000+0  15444-3 0  9997
2 16908  50.0061 168.4522 0011248 163.1924  41.0404 12.44516767479532
SL-14 R/B               
1 17567U 87024B   26161.28283082  .00000327  00000+0  34377-4 0  9995
2 17567  82.5282   5.7408 0017186 317.8600  42.1294 14.86208614101887
COSMOS 1833             
1 17589U 87027A   26161.17089015  .00000319  00000+0  19627-3 0  9991
2 17589  70.9163 131.6165 0022619  66.7090 293.6409 14.13044689 23388
SL-16 R/B               
1 17590U 87027B   26161.29887641  .00000051  00000+0  48950-4 0  9992
2 17590  71.0033  81.3438 0006210 320.5188  39.5483 14.17172451 28466
SL-14 R/B               
1 17912U 87038B   26161.19064900  .00000292  00000+0  30959-4 0  9993
2 17912  82.5012 209.6624 0018297 215.0578 144.9435 14.85441083 92968
COSMOS 1844             
1 17973U 87041A   26161.17716293 -.00000174  00000+0 -64781-4 0  9992
2 17973  70.8979 199.0940 0033197 245.6727 114.0927 14.14569441 16669
SL-14 R/B               
1 18153U 87055B   26161.01671398  .00000382  00000+0  40982-4 0  9993
2 18153  82.4996 261.9882 0022053  69.9922 290.3666 14.85706080 83645
COSMOS 1867             
1 18187U 87060A   26161.07727089 -.00000067  00000+0  12374-4 0  9996
2 18187  65.0116  47.9706 0016371 282.1048  77.8202 14.31515031 33165
SL-14 R/B               
1 18749U 88001B   26160.95086552  .00000395  00000+0  42805-4 0  9990
2 18749  82.5127 108.5811 0016596 295.7443  64.2060 14.85604399 55727
COSMOS 1933             
1 18958U 88020A   26161.25103885  .00002947  00000+0  14076-3 0  9999
2 18958  82.5121 159.3040 0002800 214.6797 145.4255 15.18670834 64278
SL-3 R/B                
1 19046U 88032B   26161.26872784  .00003486  00000+0  16034-3 0  9998
2 19046  97.5250 144.3164 0023644 271.0258  88.8268 15.20788649 66177
SL-16 R/B               
1 19120U 88039B   26160.93371932  .00000015  00000+0  29875-4 0  9993
2 19120  71.0145 233.4955 0022647 203.8288 156.1791 14.19629444971478
COSMOS 1953             
1 19210U 88050A   26161.15126112  .00007243  00000+0  24878-3 0  9996
2 19210  82.5080  65.1282 0011590 147.9896 212.2051 15.29877640 51910
SL-8 R/B                
1 19257U 88053B   26160.85428078  .00000190  00000+0  70050-4 0  9990
2 19257  74.0479 302.5744 0019189 100.6419   9.7037 14.38964783989859
COSMOS 1975             
1 19573U 88093A   26161.08764998  .00006772  00000+0  23728-3 0  9996
2 19573  82.5204  24.8433 0010590 196.6256 163.4639 15.29236152 33523
SL-14 R/B               
1 19574U 88093B   26160.94233657  .00000422  00000+0  45570-4 0  9990
2 19574  82.5306 315.4470 0022195  92.7638  24.9870 14.85736309 14719
SL-16 R/B               
1 19650U 88102B   26161.15371579 -.00000157  00000+0 -55273-4 0  9994
2 19650  71.0005 316.9388 0016067 235.2376 124.7235 14.16166404939987
INTERCOSMOS 24          
1 20261U 89080A   26161.18609893  .00000791  00000+0  22354-3 0  9991
2 20261  82.6073  44.1999 1188400  78.1359 295.0272 12.59650386678441
SL-14 R/B               
1 20262U 89080C   26161.12262582  .00000362  00000+0  10775-3 0  9994
2 20262  82.5923 113.8460 1229143 333.5672  20.7404 12.50566291671702
DELTA 1 R/B             
1 20323U 89089B   26161.25299261  .00000285  00000+0  79160-4 0  9997
2 20323  97.0640 353.9208 0068632 188.8536 171.1457 14.50726647909154
ARIANE 40 R/B           
1 20443U 90005H   26161.16534291  .00000203  00000+0  78078-4 0  9992
2 20443  98.2961 218.9993 0008826 288.6845  71.3386 14.39923726906117
DELTA 2 R/B(1)          
1 20453U 90008B   26160.74245662  .00083977  00000+0  64867-3 0  9999
2 20453  35.6007 285.4221 0066666  43.4084 317.1880 15.67660417940536
