OBJECT_NAME,OBJECT_ID,EPOCH,MEAN_MOTION,ECCENTRICITY,INCLINATION,RA_OF_ASC_NODE,ARG_OF_PERICENTER,MEAN_ANOMALY,EPHEMERIS_TYPE,CLASSIFICATION_TYPE,NORAD_CAT_ID,ELEMENT_SET_NO,REV_AT_EPOCH,BSTAR,MEAN_MOTION_DOT,MEAN_MOTION_DDOT
SL-8 R/B,1985-006B,2026-06-10T04:57:11.342592,14.37831898,.00186175,74.0458,90.9096,339.2620,130.0993,0,U,15483,999,16732,.73278216E-4,.195E-5,0
SL-12 R/B(2),1985-042D,2026-06-10T00:15:00.116064,14.22004679,.00359007,71.1084,252.6786,338.6906,202.2008,0,U,15772,999,12751,.8807024E-5,-.28E-6,0
SL-14 R/B,1985-069B,2026-06-10T02:25:52.283712,14.86510038,.00173782,82.5266,298.0304,244.2407,115.7016,0,U,15945,999,18656,.4298568E-4,.405E-5,0
SL-16 R/B,1985-097B,2026-06-10T03:49:35.782752,14.16612128,.00055316,71.0038,305.8736,125.7752,56.0480,0,U,16182,999,10032,-.54992122E-4,-.158E-5,0
SL-14 R/B,1986-006B,2026-06-10T07:43:59.094336,14.86938603,.00754423,82.5261,172.5737,326.5962,33.0506,0,U,16496,999,16297,.51998943E-4,.515E-5,0
COSMOS 1743,1986-034A,2026-06-09T22:17:47.037696,15.66293577,.00036405,82.5280,336.4469,305.4237,54.6682,0,U,16719,999,19465,.4683512E-3,.48571E-3,0
SL-14 R/B,1986-046B,2026-06-10T06:47:35.205504,14.85666394,.00216002,82.4816,352.7002,282.9382,76.9421,0,U,16792,999,14015,.36956452E-4,.345E-5,0
SL-14 R/B,1986-055B,2026-06-10T03:38:23.864640,14.85718276,.00196686,82.5210,39.7477,30.4227,88.5046,0,U,16882,999,13309,.38098627E-4,.356E-5,0
AJISAI (EGS),1986-061A,2026-06-10T08:08:49.000128,12.44516767,.00112484,50.0061,168.4522,163.1924,41.0404,0,U,16908,999,47953,.15443688E-3,-.76E-6,0
SL-14 R/B,1987-024B,2026-06-10T06:47:16.582848,14.86208614,.00171864,82.5282,5.7408,317.8600,42.1294,0,U,17567,999,10188,.34376713E-4,.327E-5,0
COSMOS 1833,1987-027A,2026-06-10T04:06:04.908960,14.13044689,.00226194,70.9163,131.6165,66.7090,293.6409,0,U,17589,999,2338,.1962722E-3,.319E-5,0
SL-16 R/B,1987-027B,2026-06-10T07:10:22.921824,14.17172451,.00062104,71.0033,81.3438,320.5188,39.5483,0,U,17590,999,2846,.48949991E-4,.51E-6,0
SL-14 R/B,1987-038B,2026-06-10T04:34:32.073600,14.85441083,.00182975,82.5012,209.6624,215.0578,144.9435,0,U,17912,999,9296,.3095916E-4,.292E-5,0
COSMOS 1844,1987-041A,2026-06-10T04:15:06.877152,14.14569441,.00331977,70.8979,199.0940,245.6727,114.0927,0,U,17973,999,1666,-.64780552E-4,-.174E-5,0
SL-14 R/B,1987-055B,2026-06-10T00:24:04.087872,14.85706080,.00220538,82.4996,261.9882,69.9922,290.3666,0,U,18153,999,8364,.40981502E-4,.382E-5,0
COSMOS 1867,1987-060A,2026-06-10T01:51:16.204896,14.31515031,.00163718,65.0116,47.9706,282.1048,77.8202,0,U,18187,999,3316,.12373747E-4,-.67E-6,0
SL-14 R/B,1988-001B,2026-06-09T22:49:14.780928,14.85604399,.00165964,82.5127,108.5811,295.7443,64.2060,0,U,18749,999,5572,.42805138E-4,.395E-5,0
COSMOS 1933,1988-020A,2026-06-10T06:01:29.756640,15.18670834,.00028006,82.5121,159.3040,214.6797,145.4255,0,U,18958,999,6427,.14076444E-3,.2947E-4,0
SL-3 R/B,1988-032B,2026-06-10T06:26:58.085376,15.20788649,.00236445,97.5250,144.3164,271.0258,88.8268,0,U,19046,999,6617,.16034287E-3,.3486E-4,0
SL-16 R/B,1988-039B,2026-06-09T22:24:33.349248,14.19629444,.00226473,71.0145,233.4955,203.8288,156.1791,0,U,19120,999,97147,.29874825E-4,.15E-6,0
COSMOS 1953,1988-050A,2026-06-10T03:37:48.960768,15.29877640,.00115902,82.5080,65.1282,147.9896,212.2051,0,U,19210,999,5191,.24878405E-3,.7243E-4,0
SL-8 R/B,1988-053B,2026-06-09T20:30:09.859392,14.38964783,.00191895,74.0479,302.5744,100.6419,9.7037,0,U,19257,999,98985,.7004993E-4,.19E-5,0
COSMOS 1975,1988-093A,2026-06-10T02:06:12.958272,15.29236152,.00105907,82.5204,24.8433,196.6256,163.4639,0,U,19573,999,3352,.23728448E-3,.6772E-4,0
SL-14 R/B,1988-093B,2026-06-09T22:36:57.879648,14.85736309,.00221956,82.5306,315.4470,92.7638,24.9870,0,U,19574,999,1471,.45570365E-4,.422E-5,0
SL-16 R/B,1988-102B,2026-06-10T03:41:21.044256,14.16166404,.00160677,71.0005,316.9388,235.2376,124.7235,0,U,19650,999,93998,-.55273211E-4,-.157E-5,0
INTERCOSMOS 24,1989-080A,2026-06-10T04:27:58.947552,12.59650386,.11884,82.6073,44.1999,78.1359,295.0272,0,U,20261,999,67844,.2235434E-3,.791E-5,0
SL-14 R/B,1989-080C,2026-06-10T02:56:34.870848,12.50566291,.1229143,82.5923,113.8460,333.5672,20.7404,0,U,20262,999,67170,.10774886E-3,.362E-5,0
DELTA 1 R/B,1989-089B,2026-06-10T06:04:18.561504,14.50726647,.00686327,97.0640,353.9208,188.8536,171.1457,0,U,20323,999,90915,.79160048E-4,.285E-5,0
ARIANE 40 R/B,1990-005H,2026-06-10T03:58:05.627424,14.39923726,.00088265,98.2961,218.9993,288.6845,71.3386,0,U,20443,999,90611,.78077724E-4,.203E-5,0
DELTA 2 R/B(1),1990-008B,2026-06-09T17:49:08.251968,15.67660417,.0066666,35.6007,285.4221,43.4084,317.1880,0,U,20453,999,94053,.64867E-3,.83977E-3,0
